[{"OBJECT_NAME":"GRUS-1D","OBJECT_ID":"2021-022E","EPOCH":"2026-03-09T23:44:16.341792","MEAN_MOTION":14.9882754,"ECCENTRICITY":0.00122189,"INCLINATION":97.5533,"RA_OF_ASC_NODE":315.589,"ARG_OF_PERICENTER":289.6697,"MEAN_ANOMALY":70.3207,"EPHEMERIS_TYPE":0,"CLASSIFICATION_TYPE":"U","NORAD_CAT_ID":47936,"ELEMENT_SET_NO":999,"REV_AT_EPOCH":27104,"BSTAR":0.00015470185,"MEAN_MOTION_DOT":1.811e-5,"MEAN_MOTION_DDOT":0},{"OBJECT_NAME":"STARLINK-34046","OBJECT_ID":"2025-102P","EPOCH":"2026-03-09T12:40:58.076544","MEAN_MOTION":14.98301012,"ECCENTRICITY":0.00040357,"INCLINATION":70.0013,"RA_OF_ASC_NODE":114.9216,"ARG_OF_PERICENTER":239.0821,"MEAN_ANOMALY":120.9941,"EPHEMERIS_TYPE":0,"CLASSIFICATION_TYPE":"U","NORAD_CAT_ID":64035,"ELEMENT_SET_NO":999,"REV_AT_EPOCH":4570,"BSTAR":-0.00069639287,"MEAN_MOTION_DOT":-8.387e-5,"MEAN_MOTION_DDOT":0}]
